ONEWEB-0228             
1 48780U 21045P   23360.74391862  .00000179  00000+0  44021-3 0  9993
2 48780  87.8996  79.0318 0001658 108.8261 251.3049 13.15541949125543
